{"type": "FeatureCollection", "features": [ {"type": "Feature", "properties": {"norad_id": 67228, "name": "QPS-SAR-15", "group": "last-30-days", "lat": 0.646443080589546, "lon": 95.32229976674574, "alt_km": 572.0632188315558, "timestamp": "2025-12-26T13:39:17.669474+00:00", "meta": {"OBJECT_NAME": "QPS-SAR-15", "OBJECT_ID": "2025-307A", "EPOCH": "2025-12-26T07:14:45.262464", "MEAN_MOTION": 14.97096541, "ECCENTRICITY": 0.00100115, "INCLINATION": 42.0065, "RA_OF_ASC_NODE": 96.0666, "ARG_OF_PERICENTER": 298.3658, "MEAN_ANOMALY": 61.6157, "EPHEMERIS_TYPE": 0, "CLASSIFICATION_TYPE": "U", "NORAD_CAT_ID": 67228, "ELEMENT_SET_NO": 999, "REV_AT_EPOCH": 75, "BSTAR": 0.00049124001, "MEAN_MOTION_DOT": 5.589e-05, "MEAN_MOTION_DDOT": 0}, "tle": {"line1": "1 67228U 25307A   25360.30191276  .00005589  00000+0  49124-3 0  9996", "line2": "2 67228  42.0065  96.0666 0010011 298.3658  61.6157 14.97096541   755"}}, "geometry": {"type": "Point", "coordinates": [95.32229976674574, 0.646443080589546]}}, {"type": "Feature", "properties": {"norad_id": 67229, "name": "ELECTRON KICK STAGE R/B", "group": "last-30-days", "lat": 17.941056282857442, "lon": 112.99071559815485, "alt_km": 452.13011844949233, "timestamp": "2025-12-26T13:39:17.669485+00:00", "meta": {"OBJECT_NAME": "ELECTRON KICK STAGE R/B", "OBJECT_ID": "2025-307B", "EPOCH": "2025-12-26T07:22:51.687552", "MEAN_MOTION": 15.57402627, "ECCENTRICITY": 0.02398278, "INCLINATION": 42.0003, "RA_OF_ASC_NODE": 93.4719, "ARG_OF_PERICENTER": 272.3818, "MEAN_ANOMALY": 84.9592, "EPHEMERIS_TYPE": 0, "CLASSIFICATION_TYPE": "U", "NORAD_CAT_ID": 67229, "ELEMENT_SET_NO": 999, "REV_AT_EPOCH": 78, "BSTAR": 0.0014371534, "MEAN_MOTION_DOT": 0.00454579, "MEAN_MOTION_DDOT": 6.219145e-05}, "tle": {"line1": "1 67229U 25307B   25360.30754268  .00454579  62191-4  14372-2 0  9990", "line2": "2 67229  42.0003  93.4719 0239827 272.3818  84.9592 15.57402627   783"}}, "geometry": {"type": "Point", "coordinates": [112.99071559815485, 17.941056282857442]}}, {"type": "Feature", "properties": {"norad_id": 67230, "name": "ELECTRON R/B", "group": "last-30-days", "lat": 20.562385994315562, "lon": 116.5242291758641, "alt_km": 381.4503670972508, "timestamp": "2025-12-26T13:39:17.669495+00:00", "meta": {"OBJECT_NAME": "ELECTRON R/B", "OBJECT_ID": "2025-307C", "EPOCH": "2025-12-21T08:41:59.140320", "MEAN_MOTION": 15.55087105, "ECCENTRICITY": 0.02614087, "INCLINATION": 41.982, "RA_OF_ASC_NODE": 123.1026, "ARG_OF_PERICENTER": 268.141, "MEAN_ANOMALY": 88.9482, "EPHEMERIS_TYPE": 0, "CLASSIFICATION_TYPE": "U", "NORAD_CAT_ID": 67230, "ELEMENT_SET_NO": 999, "REV_AT_EPOCH": 1, "BSTAR": 0.00020247584, "MEAN_MOTION_DOT": 0.00071881, "MEAN_MOTION_DDOT": 8.106877e-06}, "tle": {"line1": "1 67230U 25307C   25355.36249005  .00071881  81069-5  20248-3 0  9997", "line2": "2 67230  41.9820 123.1026 0261408 268.1410  88.9482 15.55087105    19"}}, "geometry": {"type": "Point", "coordinates": [116.5242291758641, 20.562385994315562]}}, {"type": "Feature", "properties": {"norad_id": 67231, "name": "CZ-12A R/B", "group": "last-30-days", "lat": -51.187447843685604, "lon": 25.778840167427024, "alt_km": 215.81397863940037, "timestamp": "2025-12-26T13:39:17.669505+00:00", "meta": {"OBJECT_NAME": "CZ-12A R/B", "OBJECT_ID": "2025-308A", "EPOCH": "2025-12-26T06:30:38.638656", "MEAN_MOTION": 16.26966017, "ECCENTRICITY": 0.0019988, "INCLINATION": 69.706, "RA_OF_ASC_NODE": 54.0933, "ARG_OF_PERICENTER": 147.9931, "MEAN_ANOMALY": 212.2511, "EPHEMERIS_TYPE": 0, "CLASSIFICATION_TYPE": "U", "NORAD_CAT_ID": 67231, "ELEMENT_SET_NO": 999, "REV_AT_EPOCH": 52, "BSTAR": 0.00051336006, "MEAN_MOTION_DOT": 0.01837255, "MEAN_MOTION_DDOT": 4.407114e-06}, "tle": {"line1": "1 67231U 25308A   25360.27128054  .01837255  44071-5  51336-3 0  9995", "line2": "2 67231  69.7060  54.0933 0019988 147.9931 212.2511 16.26966017   527"}}, "geometry": {"type": "Point", "coordinates": [25.778840167427024, -51.187447843685604]}}]}